KUIPER-00044            
1 64505U 25134F   25325.49937712 -.00087704  00000+0 -11711-1 0  9993
2 64505  51.9014   5.0061 0011495 276.9243  83.0412 14.79571922 23861
KUIPER-00046            
1 64506U 25134G   25325.50234134  .00006130  00000+0  82563-3 0  9991
2 64506  51.9002   1.4490 0011975 285.5053  74.4587 14.80244701 23910
KUIPER-00047            
1 64507U 25134H   25325.25068054  .00004655  00000+0  59819-3 0  9998
2 64507  51.8991 334.6107 0007786 295.9602  64.0559 14.82748150 24265
KUIPER-00048            
1 64508U 25134J   25325.66672454 -.00034551  00000+0 -45220-2 0  9999
2 64508  51.8994 333.2614 0002018  63.6346 285.4159 14.79971957  4694
KUIPER-00049            
1 64509U 25134K   25325.38243889  .00004330  00000+0  59411-3 0  9993
2 64509  51.9013 347.9744 0002597 288.5767  71.4913 14.80116672 24095
KUIPER-00050            
1 64510U 25134L   25325.27364833  .00008444  00000+0  76072-3 0  9998
2 64510  51.8914 344.4482 0004678 324.8862  35.1798 14.96293495 24138
KUIPER-00051            
1 64511U 25134M   25325.45384962  .00019981  00000+0  26427-2 0  9990
2 64511  51.9035 345.2336 0001390 285.5431  74.5378 14.79924954 24137
KUIPER-00052            
1 64512U 25134N   25325.56276088  .00228482  00000+0  20119-2 0  9992
2 64512  51.8672 302.2480 0004215   2.2191 357.8826 15.67482861 24738
