<?xml version="1.0" encoding="UTF-8"?>
<ndm xmlns:xsi="http://www.w3.org/2001/XMLSchema-instance" xsi:noNamespaceSchemaLocation="https://sanaregistry.org/r/ndmxml_unqualified/ndmxml-2.0.0-master-2.0.xsd">
<omm id="CCSDS_OMM_VERS" version="2.0">
<header><CREATION_DATE/><ORIGINATOR/></header><body><segment><metadata><OBJECT_NAME>KUIPER-00044</OBJECT_NAME><OBJECT_ID>2025-134F</OBJECT_ID><CENTER_NAME>EARTH</CENTER_NAME><REF_FRAME>TEME</REF_FRAME><TIME_SYSTEM>UTC</TIME_SYSTEM><MEAN_ELEMENT_THEORY>SGP4</MEAN_ELEMENT_THEORY></metadata><data><meanElements><EPOCH>2025-11-21T11:59:06.183168</EPOCH><MEAN_MOTION>14.79571922</MEAN_MOTION><ECCENTRICITY>.0011495</ECCENTRICITY><INCLINATION>51.9014</INCLINATION><RA_OF_ASC_NODE>5.0061</RA_OF_ASC_NODE><ARG_OF_PERICENTER>276.9243</ARG_OF_PERICENTER><MEAN_ANOMALY>83.0412</MEAN_ANOMALY></meanElements><tleParameters><EPHEMERIS_TYPE>0</EPHEMERIS_TYPE><CLASSIFICATION_TYPE>U</CLASSIFICATION_TYPE><NORAD_CAT_ID>64505</NORAD_CAT_ID><ELEMENT_SET_NO>999</ELEMENT_SET_NO><REV_AT_EPOCH>2386</REV_AT_EPOCH><BSTAR>-.11711E-1</BSTAR><MEAN_MOTION_DOT>-.87704E-3</MEAN_MOTION_DOT><MEAN_MOTION_DDOT>0</MEAN_MOTION_DDOT></tleParameters></data></segment></body></omm>
<omm id="CCSDS_OMM_VERS" version="2.0">
<header><CREATION_DATE/><ORIGINATOR/></header><body><segment><metadata><OBJECT_NAME>KUIPER-00046</OBJECT_NAME><OBJECT_ID>2025-134G</OBJECT_ID><CENTER_NAME>EARTH</CENTER_NAME><REF_FRAME>TEME</REF_FRAME><TIME_SYSTEM>UTC</TIME_SYSTEM><MEAN_ELEMENT_THEORY>SGP4</MEAN_ELEMENT_THEORY></metadata><data><meanElements><EPOCH>2025-11-21T12:03:22.291776</EPOCH><MEAN_MOTION>14.80244701</MEAN_MOTION><ECCENTRICITY>.0011975</ECCENTRICITY><INCLINATION>51.9002</INCLINATION><RA_OF_ASC_NODE>1.4490</RA_OF_ASC_NODE><ARG_OF_PERICENTER>285.5053</ARG_OF_PERICENTER><MEAN_ANOMALY>74.4587</MEAN_ANOMALY></meanElements><tleParameters><EPHEMERIS_TYPE>0</EPHEMERIS_TYPE><CLASSIFICATION_TYPE>U</CLASSIFICATION_TYPE><NORAD_CAT_ID>64506</NORAD_CAT_ID><ELEMENT_SET_NO>999</ELEMENT_SET_NO><REV_AT_EPOCH>2391</REV_AT_EPOCH><BSTAR>.82563E-3</BSTAR><MEAN_MOTION_DOT>.613E-4</MEAN_MOTION_DOT><MEAN_MOTION_DDOT>0</MEAN_MOTION_DDOT></tleParameters></data></segment></body></omm>
<omm id="CCSDS_OMM_VERS" version="2.0">
<header><CREATION_DATE/><ORIGINATOR/></header><body><segment><metadata><OBJECT_NAME>KUIPER-00047</OBJECT_NAME><OBJECT_ID>2025-134H</OBJECT_ID><CENTER_NAME>EARTH</CENTER_NAME><REF_FRAME>TEME</REF_FRAME><TIME_SYSTEM>UTC</TIME_SYSTEM><MEAN_ELEMENT_THEORY>SGP4</MEAN_ELEMENT_THEORY></metadata><data><meanElements><EPOCH>2025-11-21T06:00:58.798656</EPOCH><MEAN_MOTION>14.82748150</MEAN_MOTION><ECCENTRICITY>.0007786</ECCENTRICITY><INCLINATION>51.8991</INCLINATION><RA_OF_ASC_NODE>334.6107</RA_OF_ASC_NODE><ARG_OF_PERICENTER>295.9602</ARG_OF_PERICENTER><MEAN_ANOMALY>64.0559</MEAN_ANOMALY></meanElements><tleParameters><EPHEMERIS_TYPE>0</EPHEMERIS_TYPE><CLASSIFICATION_TYPE>U</CLASSIFICATION_TYPE><NORAD_CAT_ID>64507</NORAD_CAT_ID><ELEMENT_SET_NO>999</ELEMENT_SET_NO><REV_AT_EPOCH>2426</REV_AT_EPOCH><BSTAR>.59819E-3</BSTAR><MEAN_MOTION_DOT>.4655E-4</MEAN_MOTION_DOT><MEAN_MOTION_DDOT>0</MEAN_MOTION_DDOT></tleParameters></data></segment></body></omm>
<omm id="CCSDS_OMM_VERS" version="2.0">
<header><CREATION_DATE/><ORIGINATOR/></header><body><segment><metadata><OBJECT_NAME>KUIPER-00048</OBJECT_NAME><OBJECT_ID>2025-134J</OBJECT_ID><CENTER_NAME>EARTH</CENTER_NAME><REF_FRAME>TEME</REF_FRAME><TIME_SYSTEM>UTC</TIME_SYSTEM><MEAN_ELEMENT_THEORY>SGP4</MEAN_ELEMENT_THEORY></metadata><data><meanElements><EPOCH>2025-11-21T16:00:05.000256</EPOCH><MEAN_MOTION>14.79971957</MEAN_MOTION><ECCENTRICITY>.0002018</ECCENTRICITY><INCLINATION>51.8994</INCLINATION><RA_OF_ASC_NODE>333.2614</RA_OF_ASC_NODE><ARG_OF_PERICENTER>63.6346</ARG_OF_PERICENTER><MEAN_ANOMALY>285.4159</MEAN_ANOMALY></meanElements><tleParameters><EPHEMERIS_TYPE>0</EPHEMERIS_TYPE><CLASSIFICATION_TYPE>U</CLASSIFICATION_TYPE><NORAD_CAT_ID>64508</NORAD_CAT_ID><ELEMENT_SET_NO>999</ELEMENT_SET_NO><REV_AT_EPOCH>469</REV_AT_EPOCH><BSTAR>-.4522E-2</BSTAR><MEAN_MOTION_DOT>-.34551E-3</MEAN_MOTION_DOT><MEAN_MOTION_DDOT>0</MEAN_MOTION_DDOT></tleParameters></data></segment></body></omm>
<omm id="CCSDS_OMM_VERS" version="2.0">
<header><CREATION_DATE/><ORIGINATOR/></header><body><segment><metadata><OBJECT_NAME>KUIPER-00049</OBJECT_NAME><OBJECT_ID>2025-134K</OBJECT_ID><CENTER_NAME>EARTH</CENTER_NAME><REF_FRAME>TEME</REF_FRAME><TIME_SYSTEM>UTC</TIME_SYSTEM><MEAN_ELEMENT_THEORY>SGP4</MEAN_ELEMENT_THEORY></metadata><data><meanElements><EPOCH>2025-11-21T09:10:42.720096</EPOCH><MEAN_MOTION>14.80116672</MEAN_MOTION><ECCENTRICITY>.0002597</ECCENTRICITY><INCLINATION>51.9013</INCLINATION><RA_OF_ASC_NODE>347.9744</RA_OF_ASC_NODE><ARG_OF_PERICENTER>288.5767</ARG_OF_PERICENTER><MEAN_ANOMALY>71.4913</MEAN_ANOMALY></meanElements><tleParameters><EPHEMERIS_TYPE>0</EPHEMERIS_TYPE><CLASSIFICATION_TYPE>U</CLASSIFICATION_TYPE><NORAD_CAT_ID>64509</NORAD_CAT_ID><ELEMENT_SET_NO>999</ELEMENT_SET_NO><REV_AT_EPOCH>2409</REV_AT_EPOCH><BSTAR>.59411E-3</BSTAR><MEAN_MOTION_DOT>.433E-4</MEAN_MOTION_DOT><MEAN_MOTION_DDOT>0</MEAN_MOTION_DDOT></tleParameters></data></segment></body></omm>
<omm id="CCSDS_OMM_VERS" version="2.0">
<header><CREATION_DATE/><ORIGINATOR/></header><body><segment><metadata><OBJECT_NAME>KUIPER-00050</OBJECT_NAME><OBJECT_ID>2025-134L</OBJECT_ID><CENTER_NAME>EARTH</CENTER_NAME><REF_FRAME>TEME</REF_FRAME><TIME_SYSTEM>UTC</TIME_SYSTEM><MEAN_ELEMENT_THEORY>SGP4</MEAN_ELEMENT_THEORY></metadata><data><meanElements><EPOCH>2025-11-21T06:34:03.215712</EPOCH><MEAN_MOTION>14.96293495</MEAN_MOTION><ECCENTRICITY>.0004678</ECCENTRICITY><INCLINATION>51.8914</INCLINATION><RA_OF_ASC_NODE>344.4482</RA_OF_ASC_NODE><ARG_OF_PERICENTER>324.8862</ARG_OF_PERICENTER><MEAN_ANOMALY>35.1798</MEAN_ANOMALY></meanElements><tleParameters><EPHEMERIS_TYPE>0</EPHEMERIS_TYPE><CLASSIFICATION_TYPE>U</CLASSIFICATION_TYPE><NORAD_CAT_ID>64510</NORAD_CAT_ID><ELEMENT_SET_NO>999</ELEMENT_SET_NO><REV_AT_EPOCH>2413</REV_AT_EPOCH><BSTAR>.76072E-3</BSTAR><MEAN_MOTION_DOT>.8444E-4</MEAN_MOTION_DOT><MEAN_MOTION_DDOT>0</MEAN_MOTION_DDOT></tleParameters></data></segment></body></omm>
<omm id="CCSDS_OMM_VERS" version="2.0">
<header><CREATION_DATE/><ORIGINATOR/></header><body><segment><metadata><OBJECT_NAME>KUIPER-00051</OBJECT_NAME><OBJECT_ID>2025-134M</OBJECT_ID><CENTER_NAME>EARTH</CENTER_NAME><REF_FRAME>TEME</REF_FRAME><TIME_SYSTEM>UTC</TIME_SYSTEM><MEAN_ELEMENT_THEORY>SGP4</MEAN_ELEMENT_THEORY></metadata><data><meanElements><EPOCH>2025-11-21T10:53:32.607168</EPOCH><MEAN_MOTION>14.79924954</MEAN_MOTION><ECCENTRICITY>.000139</ECCENTRICITY><INCLINATION>51.9035</INCLINATION><RA_OF_ASC_NODE>345.2336</RA_OF_ASC_NODE><ARG_OF_PERICENTER>285.5431</ARG_OF_PERICENTER><MEAN_ANOMALY>74.5378</MEAN_ANOMALY></meanElements><tleParameters><EPHEMERIS_TYPE>0</EPHEMERIS_TYPE><CLASSIFICATION_TYPE>U</CLASSIFICATION_TYPE><NORAD_CAT_ID>64511</NORAD_CAT_ID><ELEMENT_SET_NO>999</ELEMENT_SET_NO><REV_AT_EPOCH>2413</REV_AT_EPOCH><BSTAR>.26427E-2</BSTAR><MEAN_MOTION_DOT>.19981E-3</MEAN_MOTION_DOT><MEAN_MOTION_DDOT>0</MEAN_MOTION_DDOT></tleParameters></data></segment></body></omm>
<omm id="CCSDS_OMM_VERS" version="2.0">
<header><CREATION_DATE/><ORIGINATOR/></header><body><segment><metadata><OBJECT_NAME>KUIPER-00052</OBJECT_NAME><OBJECT_ID>2025-134N</OBJECT_ID><CENTER_NAME>EARTH</CENTER_NAME><REF_FRAME>TEME</REF_FRAME><TIME_SYSTEM>UTC</TIME_SYSTEM><MEAN_ELEMENT_THEORY>SGP4</MEAN_ELEMENT_THEORY></metadata><data><meanElements><EPOCH>2025-11-21T13:30:22.540032</EPOCH><MEAN_MOTION>15.67482861</MEAN_MOTION><ECCENTRICITY>.0004215</ECCENTRICITY><INCLINATION>51.8672</INCLINATION><RA_OF_ASC_NODE>302.2480</RA_OF_ASC_NODE><ARG_OF_PERICENTER>2.2191</ARG_OF_PERICENTER><MEAN_ANOMALY>357.8826</MEAN_ANOMALY></meanElements><tleParameters><EPHEMERIS_TYPE>0</EPHEMERIS_TYPE><CLASSIFICATION_TYPE>U</CLASSIFICATION_TYPE><NORAD_CAT_ID>64512</NORAD_CAT_ID><ELEMENT_SET_NO>999</ELEMENT_SET_NO><REV_AT_EPOCH>2473</REV_AT_EPOCH><BSTAR>.20119E-2</BSTAR><MEAN_MOTION_DOT>.228482E-2</MEAN_MOTION_DOT><MEAN_MOTION_DDOT>0</MEAN_MOTION_DDOT></tleParameters></data></segment></body></omm>

</ndm>
